GLOBALSTAR M035         
1 25851U 99037A   26005.19317014 -.00000091  00000+0 -10473-2 0  9996
2 25851  51.9983 324.4716 0013722 311.4533  60.9733 11.04540781118582
GLOBALSTAR M032         
1 25852U 99037B   26005.02393456 -.00000089  00000+0 -71082-3 0  9994
2 25852  51.9944 136.1209 0013453 144.8342 215.3348 11.19075131157389
GLOBALSTAR M051         
1 25853U 99037C   26005.20890015 -.00000088  00000+0 -39216-3 0  9990
2 25853  51.9796 273.5405 0000773  53.2675 306.8207 11.42200331155478
GLOBALSTAR M030         
1 25854U 99037D   26005.31462778 -.00000102  00000+0 -57416-3 0  9993
2 25854  51.9894  66.5332 0003394  57.2369 302.8774 11.55112909173408
GLOBALSTAR M048         
1 25872U 99041A   26005.28709978 -.00000064  00000+0  17001-3 0  9992
2 25872  51.9339 216.1982 0013202 169.0267   2.7260 11.33861786147906
GLOBALSTAR M026         
1 25873U 99041B   26005.25683252 -.00000177  00000+0 -41402-2 0  9993
2 25873  52.0023  80.1541 0001701 223.4499 175.2610 11.06844474170863
GLOBALSTAR M043         
1 25874U 99041C   26005.17861494 -.00000119  00000+0 -15277-2 0  9998
2 25874  51.9437 332.1462 0013444 297.5554  75.6099 11.25699036145627
GLOBALSTAR M028         
1 25875U 99041D   26005.12063143 -.00000047  00000+0  34554-3 0  9998
2 25875  51.9644 310.9292 0063237 149.6319 210.8229 12.50593807215448
